OBJECT_NAME,OBJECT_ID,EPOCH,MEAN_MOTION,ECCENTRICITY,INCLINATION,RA_OF_ASC_NODE,ARG_OF_PERICENTER,MEAN_ANOMALY,EPHEMERIS_TYPE,CLASSIFICATION_TYPE,NORAD_CAT_ID,ELEMENT_SET_NO,REV_AT_EPOCH,BSTAR,MEAN_MOTION_DOT,MEAN_MOTION_DDOT
STARLINK-30997,2023-186K,2026-07-04T12:34:52.600224,15.27612984,.00009523,42.9998,123.8730,269.4124,90.6618,0,U,58482,999,14376,.91154768E-3,.24932E-3,0
STARLINK-30994,2023-186L,2026-07-04T15:15:48.323808,15.34854401,.00094782,42.9997,317.6231,317.9692,42.0435,0,U,58483,999,14571,.30578E-2,.106951E-2,0
STARLINK-30991,2023-186M,2026-07-04T13:19:04.065024,15.27593080,.00011682,43.0034,123.2705,260.7184,99.3536,0,U,58484,999,14375,.54283509E-4,.1232E-4,0
STARLINK-30979,2023-186N,2026-07-04T12:47:49.892640,15.27576043,.00006022,43.0023,123.9746,265.6874,94.3909,0,U,58485,999,14375,.19028248E-3,.4977E-4,0
STARLINK-31005,2023-186P,2026-07-04T12:38:34.364832,15.27589143,.00016006,43.0028,123.9247,275.0121,85.0548,0,U,58486,999,14375,.98434903E-4,.2448E-4,0
STARLINK-30987,2023-186Q,2026-07-04T12:44:07.365984,15.27597668,.00011575,43.0025,123.9523,276.8642,83.2078,0,U,58487,999,14375,.63038435E-4,.1474E-4,0
STARLINK-31000,2023-186R,2026-07-04T12:27:29.896992,15.27576702,.00008406,42.9996,123.8642,184.4415,175.6430,0,U,58488,999,14375,.53067491E-3,.14368E-3,0
STARLINK-30993,2023-186S,2026-07-04T12:33:02.024640,15.27598680,.00014605,43.0003,123.8927,271.3220,88.7465,0,U,58489,999,14375,.13635516E-2,.37472E-3,0
STARLINK-30978,2023-186T,2026-07-04T12:18:13.312512,15.27595776,.00014376,43.0023,123.8168,264.6080,95.4607,0,U,58490,999,14375,.10349031E-3,.2588E-4,0
STARLINK-30953,2023-186U,2026-07-04T10:14:58.625952,15.27584083,.00012355,43.0036,328.2295,275.6189,84.4522,0,U,58491,999,14574,.51247678E-4,.1148E-4,0
STARLINK-30986,2023-186V,2026-07-04T05:56:03.486912,15.27574633,.00009976,43.0007,125.2644,270.0381,90.0357,0,U,58492,999,14371,.57774584E-4,.1328E-4,0
STARLINK-30985,2023-186W,2026-07-04T04:10:47.898336,15.27575288,.00014769,43.0021,125.5750,266.2789,93.7894,0,U,58493,999,14370,.97447993E-4,.242E-4,0
STARLINK-30981,2023-186X,2026-07-04T02:31:05.229696,15.27582848,.00008148,43.0003,125.9129,232.4789,127.5989,0,U,58494,999,14369,.16144003E-4,.182E-5,0
STARLINK-31002,2023-186Y,2026-07-04T00:20:08.498400,15.27558870,.00005403,43.0000,126.9503,202.4081,157.6747,0,U,58495,999,14384,.5852073E-5,-.101E-5,0
XINGCHI-1 02A,2023-187A,2026-07-04T14:21:03.978144,14.84323956,.0012953,97.9262,268.3399,89.1668,271.1030,0,U,58496,999,13970,.24972168E-3,.2044E-4,0
MISRSAT-2,2023-187B,2026-07-04T14:21:06.189120,14.83290049,.00124176,97.9269,267.3934,90.9398,269.3238,0,U,58497,999,13962,.2292691E-3,.1825E-4,0
XINGCHI-1 02B,2023-187C,2026-07-04T14:12:44.834976,14.85867195,.00119983,97.9295,269.6156,85.2359,275.0226,0,U,58498,999,13976,.23323994E-3,.1979E-4,0
DOORY-SAT,2023-188A,2026-07-04T14:08:24.701856,14.80668178,.00073183,46.9795,209.6046,122.6882,237.4719,0,U,58500,999,13957,.18483807E-3,.1231E-4,0
2023-189A,2023-189A,2026-07-04T14:31:30.764352,15.33465135,.00107749,97.4366,203.9530,187.8502,172.2573,0,U,58502,999,14388,.21801967E-3,.6983E-4,0
CHUANGXIN 19 (CX-19),2023-190A,2026-07-04T15:43:42.798144,13.39553119,.00021378,86.5049,326.5344,88.8519,271.2869,0,U,58505,999,12703,.70722766E-4,.53E-6,0
STARLINK-31026,2023-191A,2026-07-04T08:50:15.507456,15.27563568,.00013251,43.0017,171.4945,268.8718,91.1982,0,U,58508,999,14323,.13659365E-4,.114E-5,0
STARLINK-31020,2023-191B,2026-07-04T00:42:49.506624,15.27566196,.00023905,43.0026,173.2554,265.3056,94.7523,0,U,58509,999,14318,.12921394E-3,.3293E-4,0
STARLINK-30989,2023-191C,2026-07-04T15:15:41.774688,15.27583410,.00011017,43.0014,163.2513,275.8916,84.1810,0,U,58510,999,14338,.73404844E-4,.1759E-4,0
STARLINK-30968,2023-191D,2026-07-04T07:30:27.658368,15.27618775,.00007628,43.0005,165.1260,263.9878,96.0887,0,U,58511,999,14330,-.22730362E-3,-.6519E-4,0
STARLINK-30982,2023-191E,2026-07-03T23:45:14.355936,15.27577765,.00009284,43.0043,166.9991,221.4225,138.6557,0,U,58512,999,14325,.19235491E-4,.267E-5,0
STARLINK-30998,2023-191F,2026-07-03T23:48:57.013920,15.27567005,.00012171,43.0022,167.0233,271.4056,88.6656,0,U,58513,999,14328,.14524318E-3,.3735E-4,0
STARLINK-30983,2023-191G,2026-07-04T08:33:10.350720,15.27584382,.0001348,43.0002,164.5912,271.1644,88.9054,0,U,58514,999,14296,.10660757E-3,.2673E-4,0
STARLINK-31017,2023-191H,2026-07-04T13:33:30.254400,15.27596162,.00015937,43.0029,291.1139,272.6209,87.4461,0,U,58515,999,14605,.17827061E-3,.4649E-4,0
STARLINK-31028,2023-191J,2026-07-04T07:52:29.552448,15.27479580,.0000467,43.0062,164.3831,171.8628,188.2232,0,U,58516,999,14331,.69020611E-3,.18721E-3,0
STARLINK-31011,2023-191K,2026-07-03T23:56:07.591776,15.27594359,.0001495,43.0039,166.2073,279.5126,80.5556,0,U,58517,999,14326,-.11519235E-3,-.3432E-4,0
STARLINK-31021,2023-191L,2026-07-04T15:10:08.440032,15.27582896,.0000989,43.0007,163.1962,280.0799,79.9941,0,U,58518,999,14335,.75490277E-4,.1816E-4,0
STARLINK-31010,2023-191M,2026-07-04T15:04:34.899744,15.27580740,.00012442,43.0017,163.1324,279.5033,80.5678,0,U,58519,999,14335,.89123796E-4,.2191E-4,0
STARLINK-31003,2023-191N,2026-07-03T23:54:16.898688,15.27577463,.00010987,43.0035,166.1949,270.0771,89.9955,0,U,58520,999,14326,.3507923E-4,.703E-5,0
STARLINK-31015,2023-191P,2026-07-03T23:59:49.760736,15.27605789,.0001893,43.0012,166.2235,253.2513,106.8131,0,U,58521,999,14323,.96931991E-3,.26529E-3,0
STARLINK-30932,2023-191R,2026-07-04T08:01:42.448512,15.27584721,.00015616,43.0053,164.4329,282.9637,77.1041,0,U,58523,999,14326,.37480721E-4,.769E-5,0
STARLINK-30992,2023-191S,2026-07-04T00:16:29.371584,15.27575359,.00012813,43.0025,166.3053,268.3204,91.7501,0,U,58524,999,14326,.6822954E-5,-.74E-6,0
STARLINK-30948,2023-191T,2026-07-04T05:02:39.108768,15.27579648,.00011175,43.0018,165.2152,259.7993,100.2733,0,U,58525,999,14329,.69486867E-4,.1651E-4,0
STARLINK-31013,2023-191U,2026-07-04T06:26:38.345568,15.10373945,.0006953,42.9971,186.0910,77.1606,283.0016,0,U,58526,999,14305,.13242509E-2,.21976E-3,0
STARLINK-31001,2023-191V,2026-07-04T14:55:20.625600,15.27555536,.00006208,43.0011,163.0482,264.4431,95.6350,0,U,58527,999,14335,.36920048E-3,.9904E-4,0
STARLINK-31004,2023-191W,2026-07-03T22:51:34.913088,15.27585049,.00018201,43.0029,166.7148,251.3903,108.6751,0,U,58528,999,14325,.23072987E-3,.6093E-4,0
STARLINK-30988,2023-191X,2026-07-04T05:13:46.715520,15.27570096,.00011854,43.0014,165.2658,244.8110,115.2619,0,U,58529,999,14329,.79657936E-4,.193E-4,0
STARLINK-31009,2023-191Y,2026-07-04T05:19:18.527808,15.27578620,.00016886,43.0016,165.2960,275.7411,84.3248,0,U,58530,999,14331,.4999488E-4,.1114E-4,0
STARLINK-31012,2023-192A,2026-07-01T12:16:40.755648,15.30440448,.00017959,53.1591,253.9359,158.7790,201.3286,0,U,58531,999,14341,.28958679E-2,.87066E-3,0
STARLINK-31035,2023-192B,2026-07-04T09:40:03.257472,15.34387367,.00007983,53.1598,226.4727,77.2609,282.8482,0,U,58532,999,14405,.16234783E-4,.172E-5,0
STARLINK-31036,2023-192C,2026-07-04T13:15:00.902592,15.34401226,.00010988,53.1595,238.1093,84.8455,275.2673,0,U,58533,999,14390,.36984119E-4,.874E-5,0
STARLINK-30936,2023-192D,2026-07-04T12:47:02.981760,15.31714176,.00008168,53.1587,229.4614,71.2731,288.8359,0,U,58534,999,14402,.87562236E-4,.2354E-4,0
STARLINK-31032,2023-192E,2026-07-04T12:32:35.841984,15.34400573,.00011678,53.1597,237.8968,90.5830,269.5306,0,U,58535,999,14390,.10529582E-3,.3183E-4,0
STARLINK-31037,2023-192F,2026-07-04T10:37:43.811616,15.34394991,.00012266,53.1610,238.8411,92.9611,267.1532,0,U,58536,999,14388,.13450585E-4,.78E-6,0
STARLINK-31041,2023-192G,2026-07-04T10:46:47.030880,15.34411365,.00011033,53.1589,238.8603,85.1656,274.9473,0,U,58537,999,14388,.10245509E-3,.3088E-4,0
STARLINK-31014,2023-192H,2026-07-04T10:10:27.549408,15.34398504,.00010169,53.1576,238.7013,85.8528,274.2590,0,U,58538,999,14388,.12343802E-3,.3796E-4,0
STARLINK-31055,2023-192J,2026-07-04T12:59:52.071360,15.34404970,.00014615,53.1575,238.0156,74.4072,285.7092,0,U,58539,999,14390,.65703241E-4,.1844E-4,0
STARLINK-31019,2023-192K,2026-07-04T10:28:38.091936,15.34396772,.00011922,53.1594,238.7786,83.8324,276.2814,0,U,58540,999,14388,.49770336E-4,.1306E-4,0
STARLINK-31045,2023-192L,2026-07-04T01:55:29.492544,15.30187878,.00012017,53.1609,318.9602,95.5365,264.5772,0,U,58541,999,14271,.62434643E-4,.149E-4,0
STARLINK-31030,2023-192M,2026-07-04T13:02:54.975840,15.34373414,.00015485,53.1592,238.0247,86.0891,274.0289,0,U,58542,999,14390,-.17170751E-4,-.956E-5,0
STARLINK-31049,2023-192N,2026-07-04T09:58:20.716320,15.34390340,.00010859,53.1584,238.6479,74.2100,285.9023,0,U,58543,999,14388,.46695175E-4,.1201E-4,0
STARLINK-31048,2023-192P,2026-07-04T13:39:03.892320,15.30185607,.00011959,53.1575,239.5549,100.5335,259.5801,0,U,58544,999,14388,.15609079E-3,.4264E-4,0
STARLINK-31057,2023-192Q,2026-07-04T13:11:59.085888,15.34401757,.00011448,53.1590,238.0635,78.3278,281.7853,0,U,58545,999,14390,.14764594E-3,.4616E-4,0
STARLINK-31050,2023-192R,2026-07-04T10:31:39.625248,15.34401370,.00014275,53.1607,238.7910,88.6944,271.4222,0,U,58546,999,14388,.5341872E-4,.1429E-4,0
STARLINK-31063,2023-192S,2026-07-04T10:16:05.813184,15.29399147,.00058245,53.1587,230.1641,82.6123,277.5539,0,U,58547,999,14400,.59294027E-2,.175112E-2,0
STARLINK-31016,2023-192T,2026-07-04T10:35:29.645376,15.30206269,.00013166,53.1613,240.1804,91.8369,268.2782,0,U,58548,999,14386,.11005724E-3,.2902E-4,0
STARLINK-31053,2023-192U,2026-07-04T13:21:04.828896,15.34390466,.00010814,53.1596,238.1003,78.8959,281.2165,0,U,58549,999,14390,.13897385E-3,.4321E-4,0
STARLINK-31056,2023-192V,2026-07-04T10:40:02.549280,15.30214670,.00011075,53.1601,240.2455,94.2215,265.8912,0,U,58550,999,14386,.10740041E-3,.2824E-4,0
STARLINK-30999,2023-192W,2026-07-04T12:21:09.574560,15.34412372,.00013848,53.1575,229.9125,80.9406,279.1753,0,U,58551,999,14401,.14882325E-3,.4657E-4,0
